KUIPER-00008            
1 63724U 25088A   26191.37023441 -.00000265  00000+0 -57726-5 0  9994
2 63724  51.9018 265.5174 0000750 108.6095 251.4949 14.79924856 66213
KUIPER-00009            
1 63725U 25088B   26191.72279573  .00002310  00000+0  33200-3 0  9993
2 63725  51.9029 281.5886 0000610  86.6359 273.4673 14.79924880 66010
KUIPER-00010            
1 63726U 25088C   26191.20681578 -.00000212  00000+0  11996-5 0  9999
2 63726  51.9023 261.3419 0000614  98.7180 261.3852 14.79925406 65876
KUIPER-00011            
1 63727U 25088D   26191.70519644  .00000637  00000+0  11257-3 0  9997
2 63727  51.9004 266.6869 0000627 109.5089 250.5941 14.79932450 65973
KUIPER-00012            
1 63728U 25088E   26191.68761363  .00000430  00000+0  85446-4 0  9995
2 63728  51.8995 251.6976 0000676 109.0234 251.0802 14.79926832 66134
KUIPER-00013            
1 63729U 25088F   26191.61880478  .00000533  00000+0  98915-4 0  9997
2 63729  51.9008 284.5216 0000456  99.9732 260.1282 14.79916961 65773
KUIPER-00014            
1 63730U 25088G   26191.58501229  .00000512  00000+0  96219-4 0  9991
2 63730  51.9023 284.6143 0000563 103.1921 256.9104 14.79933346 65580
KUIPER-00015            
1 63731U 25088H   26190.52753125  .00000845  00000+0  13983-3 0  9994
2 63731  51.8996 299.3530 0000555  99.8964 260.2061 14.79922502 65741
KUIPER-00016            
1 63732U 25088J   26191.31220545  .00001774  00000+0  26180-3 0  9993
2 63732  51.9002 288.3353 0000634  85.5219 274.5815 14.79916037 65500
KUIPER-00018            
1 63733U 25088K   26190.47886624  .00000747  00000+0  12702-3 0  9990
2 63733  51.9028 282.0492 0000621 104.3104 255.7927 14.79930767 65526
KUIPER-00019            
1 63734U 25088L   26191.24835797 -.00000093  00000+0  16773-4 0  9990
2 63734  51.8992 277.4058 0001206 104.8560 255.2536 14.79929338 65650
KUIPER-00020            
1 63735U 25088M   26190.88126975 -.00010156  00000+0 -13045-2 0  9990
2 63735  51.9039 282.7729 0000171  76.3549 283.7432 14.79954870 65759
KUIPER-00021            
1 63736U 25088N   26191.25276803  .00000751  00000+0  12749-3 0  9998
2 63736  51.8994 281.0859 0000625 102.9439 257.1593 14.79927502 65646
KUIPER-00023            
1 63737U 25088P   26191.28371792  .00001996  00000+0  29050-3 0  9990
2 63737  51.9014 283.4381 0000445 116.8065 243.2943 14.79964824 65919
KUIPER-00024            
1 63738U 25088Q   26189.54155038  .00000696  00000+0  12031-3 0  9997
2 63738  51.9038 278.7414 0000677 101.5853 258.5185 14.79918973 65958
KUIPER-00025            
1 63739U 25088R   26191.25547552  .00000662  00000+0  11591-3 0  9998
2 63739  51.9039 278.6437 0000536  79.2827 280.8196 14.79918715 65965
